[{"OBJECT_NAME":"PHISAT 2","OBJECT_ID":"2024-149C","EPOCH":"2026-03-09T18:55:12.732384","MEAN_MOTION":15.29548632,"ECCENTRICITY":0.00011753,"INCLINATION":97.3806,"RA_OF_ASC_NODE":148.6498,"ARG_OF_PERICENTER":168.623,"MEAN_ANOMALY":191.5037,"EPHEMERIS_TYPE":0,"CLASSIFICATION_TYPE":"U","NORAD_CAT_ID":60470,"ELEMENT_SET_NO":999,"REV_AT_EPOCH":8679,"BSTAR":0.00031420974,"MEAN_MOTION_DOT":8.925e-5,"MEAN_MOTION_DDOT":0},{"OBJECT_NAME":"STARLINK-32926","OBJECT_ID":"2025-032W","EPOCH":"2026-03-09T19:42:56.227968","MEAN_MOTION":15.27624608,"ECCENTRICITY":0.00018345,"INCLINATION":43.0004,"RA_OF_ASC_NODE":335.002,"ARG_OF_PERICENTER":348.5664,"MEAN_ANOMALY":11.5146,"EPHEMERIS_TYPE":0,"CLASSIFICATION_TYPE":"U","NORAD_CAT_ID":63025,"ELEMENT_SET_NO":999,"REV_AT_EPOCH":6064,"BSTAR":0.0014343695,"MEAN_MOTION_DOT":0.00039474,"MEAN_MOTION_DDOT":0}]
